{
  "type": "FeatureCollection",
  "name": "gangnam-exit1-kukkiwon-v1",
  "features": [
    {
      "type": "Feature",
      "properties": {
        "role": "route",
        "source": "TMAP pedestrian API through /api/routes",
        "sourceRouteId": "tmap-0",
        "distanceM": 626,
        "origin": "강남역 2호선 1번출구",
        "destination": "국기원",
        "direction": "강남역 1번출구→국기원",
        "verifiedForPrediction": false,
        "notes": "Actual pedestrian route returned by production /api/routes. Signal timing is not verified."
      },
      "geometry": {
        "type": "LineString",
        "coordinates": [
          [127.0287628255692, 37.498060765017755],
          [127.02881004310096, 37.498074653140975],
          [127.02948775330266, 37.49828297444101],
          [127.03030711609948, 37.49853296011129],
          [127.03084872875564, 37.49869961714204],
          [127.0309598287333, 37.498735726053205],
          [127.03100704673633, 37.49873294944578],
          [127.0310237121218, 37.498724617379594],
          [127.03082094007394, 37.4991745614693],
          [127.03084315964527, 37.49919678150919],
          [127.03086815666303, 37.49922177905406],
          [127.03072371633132, 37.49954118379996],
          [127.03060427545242, 37.49979948498188],
          [127.03051261147279, 37.49999946010486],
          [127.03048483457353, 37.50005778616368],
          [127.03046539072048, 37.50009944764139],
          [127.03032650590997, 37.500402187755896],
          [127.03027928468633, 37.500518840023055],
          [127.0301903983102, 37.50071603774057],
          [127.02998762618357, 37.501168759284],
          [127.03002928693695, 37.501243751320025],
          [127.03002095373363, 37.501265970811325],
          [127.02986818294792, 37.5015103841186],
          [127.0298292957917, 37.501574264888056],
          [127.02983762671688, 37.50163259159499],
          [127.02980151040822, 37.50193255609867],
          [127.02981261917256, 37.501979773035],
          [127.029868168729, 37.50201310349363],
          [127.0299209418603, 37.50200754953085],
          [127.0300126039547, 37.501874233331144]
        ]
      }
    },
    {
      "type": "Feature",
      "properties": {
        "role": "crossing-candidate",
        "source": "TMAP instruction",
        "instruction": "쿡앤쑈에서 좌측 횡단보도 후 보행자도로를 따라 53m 이동",
        "atM": 213.75852169075117,
        "verifiedForPrediction": false,
        "notes": "Candidate only. Field survey must confirm entry/exit endpoints, direction, pedestrian group, and operating plan."
      },
      "geometry": {
        "type": "Point",
        "coordinates": [127.0310237121218, 37.498724617379594]
      }
    }
  ]
}
